[Satellite]
VERSION=1.1
NAME=IRIDIUM 123
NICKNAME=IRIDIUM 123
TLE1=1 42804U 17039B   22342.47128950  .00000067  00000+0  16827-4 0  9997
TLE2=2 42804  86.3987 171.3835 0001891  82.4411 277.6999 14.34217563285525
STATUS=0
